QIANFAN-9               
1 60387U 24140J   25223.58876696  .00000142  00000+0  20124-3 0  9992
2 60387  88.9845 312.0657 0016490 186.1652 173.9299 13.50959009 50704
QIANFAN-10              
1 60388U 24140K   25223.59288965  .00000138  00000+0  19546-3 0  9991
2 60388  88.9853 311.4014 0015760 163.8563 196.3093 13.50961146 50836
QIANFAN-11              
1 60389U 24140L   25223.55580962  .00000142  00000+0  20171-3 0  9991
2 60389  88.9781 312.0835 0014533 184.9794 175.1215 13.50961410 50488
QIANFAN-12              
1 60390U 24140M   25223.57632587  .00000156  00000+0  22294-3 0  9999
2 60390  88.9824 312.0709 0013075 192.1857 167.8979 13.50961263 50615
QIANFAN-13              
1 60391U 24140N   25223.54754188  .00000139  00000+0  19686-3 0  9991
2 60391  88.9836 312.1586 0012795 194.7926 165.2852 13.50961142 50636
QIANFAN-14              
1 60392U 24140P   25223.57217726  .00000159  00000+0  22822-3 0  9995
2 60392  88.9815 312.0800 0016454 196.7722 163.2887 13.50962270 50644
QIANFAN-15              
1 60393U 24140Q   25223.58056492  .00000146  00000+0  20734-3 0  9994
2 60393  88.9838 312.0066 0012790 180.8088 179.3044 13.50958876 50631
QIANFAN-16              
1 60394U 24140R   25223.56817201  .00000149  00000+0  21193-3 0  9999
2 60394  88.9841 312.1241 0014248 199.7050 160.3553 13.50961344 50549
